NORAD_CAT_ID,OBJECT_NAME,OBJECT_TYPE,EPOCH,MEAN_MOTION,ECCENTRICITY,INCLINATION,RA_OF_ASC_NODE,ARG_OF_PERICENTER,MEAN_ANOMALY,BSTAR,MEAN_MOTION_DOT,MEAN_MOTION_DDOT,TLE_LINE0,TLE_LINE1,TLE_LINE2,SEMIMAJOR_AXIS,PERIOD,APOGEE,PERIGEE,DECAYED
50192.0,STARLINK-3259,PAYLOAD,2022-06-23 11:51:50,15.08840281,0.0002167,53.2166,202.8291,48.1455,311.9722,9.0279e-05,1.149e-05,0.0,0 STARLINK-3259,1 50192U 21125AN  22174.49432996  .00001149  00000-0  90279-4 0  9996,2 50192  53.2166 202.8291 0002167  48.1455 311.9722 15.08840281 32141,6917.88,95.438,541.244,538.245,0.0
50192.0,STARLINK-3259,PAYLOAD,2022-06-24 03:45:41,15.08839353,0.0002214,53.2165,199.8559,49.5622,310.5563,2.2909e-05,7.6e-07,0.0,0 STARLINK-3259,1 50192U 21125AN  22175.15673250  .00000076  00000-0  22909-4 0  9993,2 50192  53.2165 199.8559 0002214  49.5622 310.5563 15.08839353 29159,6917.882,95.438,541.279,538.216,0.0
50192.0,STARLINK-3259,PAYLOAD,2022-06-24 08:31:51,15.08833019,0.0002171,53.2161,198.9627,47.5855,312.532,-3.7979e-05,-8.93e-06,0.0,0 STARLINK-3259,1 50192U 21125AN  22175.35545877 -.00000893  00000-0 -37979-4 0  9990,2 50192  53.2161 198.9627 0002171  47.5855 312.5320 15.08833019 29188,6917.901999999999,95.438,541.269,538.265,0.0
50192.0,STARLINK-3259,PAYLOAD,2022-06-24 11:42:38,15.08831221,0.0002161,53.216,198.368,46.2567,313.8603,-5.0725e-05,-1.095e-05,0.0,0 STARLINK-3259,1 50192U 21125AN  22175.48794075 -.00001095  00000-0 -50725-4 0  9999,2 50192  53.2160 198.3680 0002161  46.2567 313.8603 15.08831221 32292,6917.906999999997,95.438,541.2669999999998,538.2769999999998,0.0
50192.0,STARLINK-3259,PAYLOAD,2022-06-24 18:04:10,15.088336300000002,0.0002171,53.2161,197.1787,46.4647,313.6525,-3.8572e-05,-9.02e-06,0.0,0 STARLINK-3259,1 50192U 21125AN  22175.75289973 -.00000902  00000-0 -38572-4 0  9997,2 50192  53.2161 197.1787 0002171  46.4647 313.6525 15.08833630 32332,6917.9,95.438,541.2669999999998,538.263,0.0
50192.0,STARLINK-3259,PAYLOAD,2022-06-25 03:36:28,15.08844372,0.0001868,53.2159,195.3941,38.5126,321.5999,1.0697e-05,-1.18e-06,0.0,0 STARLINK-3259,1 50192U 21125AN  22176.15032944 -.00000118  00000-0  10697-4 0  9992,2 50192  53.2159 195.3941 0001868  38.5126 321.5999 15.08844372 29308,6917.8669999999975,95.437,541.024,538.44,0.0
50192.0,STARLINK-3259,PAYLOAD,2022-06-25 09:58:01,15.08842512,0.0002022,53.2152,194.2029,36.6563,323.4567,-1.0974e-05,-4.63e-06,0.0,0 STARLINK-3259,1 50192U 21125AN  22176.41529112 -.00000463  00000-0 -10974-4 0  9991,2 50192  53.2152 194.2029 0002022  36.6563 323.4567 15.08842512 32437,6917.873000000001,95.437,541.137,538.339,0.0
50192.0,STARLINK-3259,PAYLOAD,2022-06-25 17:54:56,15.08830063,0.0002169,53.2145,192.7153,33.8717,326.2414,0.00016857,2.395e-05,0.0,0 STARLINK-3259,1 50192U 21125AN  22176.74649262  .00002395  00000-0  16857-3 0  9995,2 50192  53.2145 192.7153 0002169  33.8717 326.2414 15.08830063 29393,6917.911,95.438,541.276,538.275,0.0
50192.0,STARLINK-3259,PAYLOAD,2022-06-26 09:48:48,15.08836705,0.0002054,53.216,189.7441,42.5482,317.5669,6.8865e-05,8.08e-06,0.0,0 STARLINK-3259,1 50192U 21125AN  22177.40889168  .00000808  00000-0  68865-4 0  9994,2 50192  53.2160 189.7441 0002054  42.5482 317.5669 15.08836705 32584,6917.89,95.438,541.1759999999998,538.335,0.0
50192.0,STARLINK-3259,PAYLOAD,2022-06-26 17:45:43,15.08838452,0.0002073,53.2162,188.2573,43.5368,316.5788,8.243200000000001e-05,1.024e-05,0.0,0 STARLINK-3259,1 50192U 21125AN  22177.74009021  .00001024  00000-0  82432-4 0  9990,2 50192  53.2162 188.2573 0002073  43.5368 316.5788 15.08838452 29545,6917.885,95.438,541.184,538.316,0.0
50192.0,STARLINK-3259,PAYLOAD,2022-06-27 09:39:35,15.08840423,0.0001991,53.2164,185.2841,43.1778,316.937,3.445e-05,2.6e-06,0.0,0 STARLINK-3259,1 50192U 21125AN  22178.40248865  .00000260  00000-0  34450-4 0  9993,2 50192  53.2164 185.2841 0001991  43.1778 316.9370 15.08840423 32738,6917.879,95.438,541.121,538.367,0.0
50192.0,STARLINK-3259,PAYLOAD,2022-06-27 17:36:31,15.08828761,0.0002019,53.2158,183.7973,44.2002,315.9151,-6.6299e-05,-1.343e-05,0.0,0 STARLINK-3259,1 50192U 21125AN  22178.73370026 -.00001343  00000-0 -66299-4 0  9995,2 50192  53.2158 183.7973 0002019  44.2002 315.9151 15.08828761 29692,6917.915,95.438,541.1759999999998,538.383,0.0
50192.0,STARLINK-3259,PAYLOAD,2022-06-28 09:30:23,15.0882923,0.0002012,53.2154,180.8234,45.07899999999999,315.0365,-6.9818e-05,-1.399e-05,0.0,0 STARLINK-3259,1 50192U 21125AN  22179.39610318 -.00001399  00000-0 -69818-4 0  9990,2 50192  53.2154 180.8234 0002012  45.0790 315.0365 15.08829230 32887,6917.913000000001,95.438,541.17,538.386,0.0
50192.0,STARLINK-3259,PAYLOAD,2022-06-28 17:27:19,15.08830388,0.0002063,53.2163,179.3377,44.1767,315.939,-6.9681e-05,-1.397e-05,0.0,0 STARLINK-3259,1 50192U 21125AN  22179.72730441 -.00001397  00000-0 -69681-4 0  9993,2 50192  53.2163 179.3377 0002063  44.1767 315.9390 15.08830388 32937,6917.91,95.438,541.202,538.3480000000002,0.0
50192.0,STARLINK-3259,PAYLOAD,2022-06-29 10:56:33,15.08830957,0.0002098,53.2161,176.0664,45.0921,315.0241,-4.9585e-05,-1.077e-05,0.0,0 STARLINK-3259,1 50192U 21125AN  22180.45594697 -.00001077  00000-0 -49585-4 0  9992,2 50192  53.2161 176.0664 0002098  45.0921 315.0241 15.08830957 33049,6917.908,95.438,541.224,538.322,0.0
50192.0,STARLINK-3259,PAYLOAD,2022-06-30 10:47:21,15.08827525,0.0002142,53.2162,171.6059,44.5261,315.5903,3.5236999999999995e-05,2.72e-06,0.0,0 STARLINK-3259,1 50192U 21125AN  22181.44955361  .00000272  00000-0  35237-4 0  9994,2 50192  53.2162 171.6059 0002142  44.5261 315.5903 15.08827525 33193,6917.919,95.438,541.265,538.302,0.0
50192.0,STARLINK-3259,PAYLOAD,2022-07-01 10:38:08,15.08831964,0.0002199,53.2162,167.1452,46.137,313.9804,3.8588e-05,3.26e-06,0.0,0 STARLINK-3259,1 50192U 21125AN  22182.44315675  .00000326  00000-0  38588-4 0  9995,2 50192  53.2162 167.1452 0002199  46.1370 313.9804 15.08831964 33342,6917.905,95.438,541.2909999999998,538.249,0.0
50192.0,STARLINK-3259,PAYLOAD,2022-07-02 10:28:55,15.08837108,0.0002264,53.2162,162.6847,48.0621,312.0564,5.0186e-05,5.1e-06,0.0,0 STARLINK-3259,1 50192U 21125AN  22183.43675660  .00000510  00000-0  50186-4 0  9991,2 50192  53.2162 162.6847 0002264  48.0621 312.0564 15.08837108 33498,6917.889,95.438,541.32,538.188,0.0
50192.0,STARLINK-3259,PAYLOAD,2022-07-02 15:15:05,15.08838736,0.0002278,53.2163,161.7926,48.1707,311.9479,6.5123e-05,7.48e-06,0.0,0 STARLINK-3259,1 50192U 21125AN  22183.63547525  .00000748  00000-0  65123-4 0  9991,2 50192  53.2163 161.7926 0002278  48.1707 311.9479 15.08838736 33523,6917.884,95.438,541.325,538.173,0.0
50192.0,STARLINK-3259,PAYLOAD,2022-07-03 10:19:42,15.08845014,0.0002333,53.2164,158.2243,50.1408,309.9789,7.905399999999999e-05,9.7e-06,0.0,0 STARLINK-3259,1 50192U 21125AN  22184.43034972  .00000970  00000-0  79054-4 0  9992,2 50192  53.2164 158.2243 0002333  50.1408 309.9789 15.08845014 33641,6917.865,95.437,541.344,538.116,0.0
50192.0,STARLINK-3259,PAYLOAD,2022-07-03 15:05:51,15.08846499,0.0002341,53.2164,157.3322,50.353,309.7669,8.3725e-05,1.045e-05,0.0,0 STARLINK-3259,1 50192U 21125AN  22184.62906781  .00001045  00000-0  83725-4 0  9993,2 50192  53.2164 157.3322 0002341  50.3530 309.7669 15.08846499 33672,6917.861,95.437,541.345,538.106,0.0
50192.0,STARLINK-3259,PAYLOAD,2022-07-04 10:10:29,15.08838885,0.0002314,53.2164,153.7638,51.0614,309.0584,-2.2903e-05,-6.53e-06,0.0,0 STARLINK-3259,1 50192U 21125AN  22185.42395306 -.00000653  00000-0 -22903-4 0  9994,2 50192  53.2164 153.7638 0002314  51.0614 309.0584 15.08838885 33795,6917.884,95.438,541.35,538.148,0.0
50192.0,STARLINK-3259,PAYLOAD,2022-07-04 21:18:11,15.08841491,0.0002331,53.2165,151.6821,51.6695,308.4506,-1.6013e-05,-5.43e-06,0.0,0 STARLINK-3259,1 50192U 21125AN  22185.88763051 -.00000543  00000-0 -16013-4 0  9993,2 50192  53.2165 151.6821 0002331  51.6695 308.4506 15.08841491 33863,6917.876,95.437,541.3530000000002,538.128,0.0
50192.0,STARLINK-3259,PAYLOAD,2022-07-05 10:01:15,15.08846688,0.0002373,53.2166,149.3032,52.8222,307.2987,-8.839700000000001e-06,-4.29e-06,0.0,0 STARLINK-3259,1 50192U 21125AN  22186.41754535 -.00000429  00000-0 -88397-5 0  9998,2 50192  53.2166 149.3032 0002373  52.8222 307.2987 15.08846688 33949,6917.86,95.437,541.367,538.0830000000002,0.0
50192.0,STARLINK-3259,PAYLOAD,2022-07-05 21:08:57,15.08849642,0.0002364,53.2166,147.2216,53.5762,306.5448,4.9777e-06,-2.09e-06,0.0,0 STARLINK-3259,1 50192U 21125AN  22186.88122039 -.00000209  00000-0  49777-5 0  9991,2 50192  53.2166 147.2216 0002364  53.5762 306.5448 15.08849642 34013,6917.851,95.437,541.351,538.081,0.0
50192.0,STARLINK-3259,PAYLOAD,2022-07-06 03:30:30,15.08806035,0.0002742,53.2167,146.0322,57.8128,302.313,0.00060318,9.316e-05,0.0,0 STARLINK-3259,1 50192U 21125AN  22187.14618427  .00009316  00000-0  60318-3 0  9991,2 50192  53.2167 146.0322 0002742  57.8128 302.3130 15.08806035 30963,6917.984,95.44,541.746,537.952,0.0
50192.0,STARLINK-3259,PAYLOAD,2022-07-06 08:16:39,15.08835234,0.000244,53.216,145.1413,57.416,302.7067,5.341300000000001e-05,5.62e-06,0.0,0 STARLINK-3259,1 50192U 21125AN  22187.34490567  .00000562  00000-0  53413-4 0  9999,2 50192  53.2160 145.1413 0002440  57.4160 302.7067 15.08835234 34087,6917.895,95.438,541.448,538.072,0.0
50192.0,STARLINK-3259,PAYLOAD,2022-07-06 14:38:12,15.08834164,0.0002425,53.2168,143.9507,53.4666,306.6549,2.7741000000000003e-06,-2.44e-06,0.0,0 STARLINK-3259,1 50192U 21125AN  22187.60986838 -.00000244  00000-0  27741-5 0  9993,2 50192  53.2168 143.9507 0002425  53.4666 306.6549 15.08834164 34129,6917.898,95.438,541.441,538.086,0.0
50192.0,STARLINK-3259,PAYLOAD,2022-07-07 08:07:26,15.08840431,0.0002429,53.2169,140.68,54.1253,305.9965,1.2517e-05,-8.9e-07,0.0,0 STARLINK-3259,1 50192U 21125AN  22188.33850461 -.00000089  00000-0  12517-4 0  9997,2 50192  53.2169 140.6800 0002429  54.1253 305.9965 15.08840431 34234,6917.879,95.438,541.424,538.064,0.0
